{
  "type": "FeatureCollection",
  "features": [
    {
      "type": "Feature",
      "properties": {
        "norad_id": 31424,
        "name": "FENGYUN 1C DEB",
        "group": "fengyun-1c-debris",
        "lat": -81.42661170446463,
        "lon": 109.71250689620288,
        "alt_km": 935.4196270803131,
        "timestamp": "2025-12-09T16:56:36.857033+00:00",
        "meta_object_name": "FENGYUN 1C DEB",
        "meta_object_id": "1999-025BTL",
        "meta_epoch": "2025-12-09T02:01:32.178144",
        "meta_mean_motion": 14.08354358,
        "meta_eccentricity": 0.00944885,
        "meta_inclination": 98.4824,
        "meta_ra_of_asc_node": 27.297,
        "meta_arg_of_pericenter": 115.6393,
        "meta_mean_anomaly": 245.4576,
        "meta_ephemeris_type": 0,
        "meta_classification_type": "U",
        "meta_norad_cat_id": 31424,
        "meta_element_set_no": 999,
        "meta_rev_at_epoch": 63119,
        "meta_bstar": 0.00023729008,
        "meta_mean_motion_dot": 3.83e-06,
        "meta_mean_motion_ddot": 0,
        "tle_line1": "1 31424U 99025BTL 25343.08440021  .00000383  00000+0  23729-3 0  9994",
        "tle_line2": "2 31424  98.4824  27.2970 0094488 115.6393 245.4576 14.08354358631193"
      },
      "geometry": {
        "type": "Point",
        "coordinates": [
          109.71250689620288,
          -81.42661170446463
        ]
      }
    },
    {
      "type": "Feature",
      "properties": {
        "norad_id": 31426,
        "name": "FENGYUN 1C DEB",
        "group": "fengyun-1c-debris",
        "lat": -59.331740376535436,
        "lon": 156.29618569547023,
        "alt_km": 990.896918497916,
        "timestamp": "2025-12-09T16:56:36.857044+00:00",
        "meta_object_name": "FENGYUN 1C DEB",
        "meta_object_id": "1999-025BTN",
        "meta_epoch": "2025-12-08T22:53:41.058816",
        "meta_mean_motion": 13.90002274,
        "meta_eccentricity": 0.0324965,
        "meta_inclination": 98.5794,
        "meta_ra_of_asc_node": 140.853,
        "meta_arg_of_pericenter": 196.4375,
        "meta_mean_anomaly": 298.4345,
        "meta_ephemeris_type": 0,
        "meta_classification_type": "U",
        "meta_norad_cat_id": 31426,
        "meta_element_set_no": 999,
        "meta_rev_at_epoch": 93520,
        "meta_bstar": 0.0040109,
        "meta_mean_motion_dot": 7.539e-05,
        "meta_mean_motion_ddot": 0,
        "tle_line1": "1 31426U 99025BTN 25342.95394744  .00007539  00000+0  40109-2 0  9991",
        "tle_line2": "2 31426  98.5794 140.8530 0324965 196.4375 298.4345 13.90002274935207"
      },
      "geometry": {
        "type": "Point",
        "coordinates": [
          156.29618569547023,
          -59.331740376535436
        ]
      }
    },
    {
      "type": "Feature",
      "properties": {
        "norad_id": 31427,
        "name": "FENGYUN 1C DEB",
        "group": "fengyun-1c-debris",
        "lat": -23.074333549017496,
        "lon": -91.09422349353605,
        "alt_km": 725.4072148371461,
        "timestamp": "2025-12-09T16:56:36.857054+00:00",
        "meta_object_name": "FENGYUN 1C DEB",
        "meta_object_id": "1999-025BTP",
        "meta_epoch": "2025-12-09T06:08:13.218720",
        "meta_mean_motion": 14.58548862,
        "meta_eccentricity": 0.003144,
        "meta_inclination": 98.6698,
        "meta_ra_of_asc_node": 92.1632,
        "meta_arg_of_pericenter": 29.6013,
        "meta_mean_anomaly": 330.6956,
        "meta_ephemeris_type": 0,
        "meta_classification_type": "U",
        "meta_norad_cat_id": 31427,
        "meta_element_set_no": 999,
        "meta_rev_at_epoch": 96830,
        "meta_bstar": 0.0032818,
        "meta_mean_motion_dot": 0.00015343,
        "meta_mean_motion_ddot": 0,
        "tle_line1": "1 31427U 99025BTP 25343.25570855  .00015343  00000+0  32818-2 0  9995",
        "tle_line2": "2 31427  98.6698  92.1632 0031440  29.6013 330.6956 14.58548862968300"
      },
      "geometry": {
        "type": "Point",
        "coordinates": [
          -91.09422349353605,
          -23.074333549017496
        ]
      }
    },
    {
      "type": "Feature",
      "properties": {
        "norad_id": 31428,
        "name": "FENGYUN 1C DEB",
        "group": "fengyun-1c-debris",
        "lat": 57.562624098768154,
        "lon": 149.4842026511271,
        "alt_km": 712.2545600056046,
        "timestamp": "2025-12-09T16:56:36.857065+00:00",
        "meta_object_name": "FENGYUN 1C DEB",
        "meta_object_id": "1999-025BTQ",
        "meta_epoch": "2025-12-08T09:26:53.274624",
        "meta_mean_motion": 14.41981038,
        "meta_eccentricity": 0.00636007,
        "meta_inclination": 99.039,
        "meta_ra_of_asc_node": 313.5898,
        "meta_arg_of_pericenter": 166.601,
        "meta_mean_anomaly": 346.5883,
        "meta_ephemeris_type": 0,
        "meta_classification_type": "U",
        "meta_norad_cat_id": 31428,
        "meta_element_set_no": 999,
        "meta_rev_at_epoch": 97447,
        "meta_bstar": 0.0011967706,
        "meta_mean_motion_dot": 3.973e-05,
        "meta_mean_motion_ddot": 0,
        "tle_line1": "1 31428U 99025BTQ 25342.39367216  .00003973  00000+0  11968-2 0  9994",
        "tle_line2": "2 31428  99.0390 313.5898 0063600 166.6010 346.5883 14.41981038974479"
      },
      "geometry": {
        "type": "Point",
        "coordinates": [
          149.4842026511271,
          57.562624098768154
        ]
      }
    },
    {
      "type": "Feature",
      "properties": {
        "norad_id": 31429,
        "name": "FENGYUN 1C DEB",
        "group": "fengyun-1c-debris",
        "lat": 23.24419657312884,
        "lon": 28.91856275185437,
        "alt_km": 809.250042483688,
        "timestamp": "2025-12-09T16:56:36.857075+00:00",
        "meta_object_name": "FENGYUN 1C DEB",
        "meta_object_id": "1999-025BTR",
        "meta_epoch": "2025-12-09T10:09:18.124416",
        "meta_mean_motion": 14.22547249,
        "meta_eccentricity": 0.0014782,
        "meta_inclination": 98.6901,
        "meta_ra_of_asc_node": 32.4062,
        "meta_arg_of_pericenter": 73.4736,
        "meta_mean_anomaly": 302.554,
        "meta_ephemeris_type": 0,
        "meta_classification_type": "U",
        "meta_norad_cat_id": 31429,
        "meta_element_set_no": 999,
        "meta_rev_at_epoch": 95906,
        "meta_bstar": 0.0015347,
        "meta_mean_motion_dot": 3.388e-05,
        "meta_mean_motion_ddot": 0,
        "tle_line1": "1 31429U 99025BTR 25343.42312644  .00003388  00000+0  15347-2 0  9990",
        "tle_line2": "2 31429  98.6901  32.4062 0014782  73.4736 302.5540 14.22547249959061"
      },
      "geometry": {
        "type": "Point",
        "coordinates": [
          28.91856275185437,
          23.24419657312884
        ]
      }
    },
    {
      "type": "Feature",
      "properties": {
        "norad_id": 31430,
        "name": "FENGYUN 1C DEB",
        "group": "fengyun-1c-debris",
        "lat": -70.88863111684287,
        "lon": -159.6285217275984,
        "alt_km": 831.8615464883442,
        "timestamp": "2025-12-09T16:56:36.857085+00:00",
        "meta_object_name": "FENGYUN 1C DEB",
        "meta_object_id": "1999-025BTS",
        "meta_epoch": "2025-12-09T10:46:57.513792",
        "meta_mean_motion": 14.25582156,
        "meta_eccentricity": 0.002705,
        "meta_inclination": 98.7435,
        "meta_ra_of_asc_node": 46.4841,
        "meta_arg_of_pericenter": 52.0867,
        "meta_mean_anomaly": 324.2396,
        "meta_ephemeris_type": 0,
        "meta_classification_type": "U",
        "meta_norad_cat_id": 31430,
        "meta_element_set_no": 999,
        "meta_rev_at_epoch": 96071,
        "meta_bstar": 0.0014961,
        "meta_mean_motion_dot": 3.512e-05,
        "meta_mean_motion_ddot": 0,
        "tle_line1": "1 31430U 99025BTS 25343.44927678  .00003512  00000+0  14961-2 0  9993",
        "tle_line2": "2 31430  98.7435  46.4841 0027050  52.0867 324.2396 14.25582156960719"
      },
      "geometry": {
        "type": "Point",
        "coordinates": [
          -159.6285217275984,
          -70.88863111684287
        ]
      }
    },
    {
      "type": "Feature",
      "properties": {
        "norad_id": 31431,
        "name": "FENGYUN 1C DEB",
        "group": "fengyun-1c-debris",
        "lat": 28.322707331728466,
        "lon": -132.577787061161,
        "alt_km": 855.8120504905373,
        "timestamp": "2025-12-09T16:56:36.857095+00:00",
        "meta_object_name": "FENGYUN 1C DEB",
        "meta_object_id": "1999-025BTT",
        "meta_epoch": "2025-12-07T15:10:24.373056",
        "meta_mean_motion": 14.03044754,
        "meta_eccentricity": 0.01330657,
        "meta_inclination": 98.5386,
        "meta_ra_of_asc_node": 230.1202,
        "meta_arg_of_pericenter": 109.6865,
        "meta_mean_anomaly": 251.8715,
        "meta_ephemeris_type": 0,
        "meta_classification_type": "U",
        "meta_norad_cat_id": 31431,
        "meta_element_set_no": 999,
        "meta_rev_at_epoch": 94460,
        "meta_bstar": 0.0022798155,
        "meta_mean_motion_dot": 3.793e-05,
        "meta_mean_motion_ddot": 0,
        "tle_line1": "1 31431U 99025BTT 25341.63222654  .00003793  00000+0  22798-2 0  9993",
        "tle_line2": "2 31431  98.5386 230.1202 0133065 109.6865 251.8715 14.03044754944600"
      },
      "geometry": {
        "type": "Point",
        "coordinates": [
          -132.577787061161,
          28.322707331728466
        ]
      }
    }
  ]
}